{
  "type": "FeatureCollection",
  "features": [
    {
      "type": "Feature",
      "properties": {
        "norad_id": 34944,
        "name": "COSMOS 2251 DEB",
        "group": "cosmos-2251-debris",
        "lat": 27.019730360257796,
        "lon": -143.97938298298186,
        "alt_km": 698.1213774551943,
        "timestamp": "2025-12-26T08:37:54.975145+00:00",
        "meta_object_name": "COSMOS 2251 DEB",
        "meta_object_id": "1993-036ADX",
        "meta_epoch": "2025-12-26T00:00:53.483328",
        "meta_mean_motion": 14.14210004,
        "meta_eccentricity": 0.0220112,
        "meta_inclination": 73.7468,
        "meta_ra_of_asc_node": 208.1129,
        "meta_arg_of_pericenter": 53.4279,
        "meta_mean_anomaly": 308.6895,
        "meta_ephemeris_type": 0,
        "meta_classification_type": "U",
        "meta_norad_cat_id": 34944,
        "meta_element_set_no": 999,
        "meta_rev_at_epoch": 64270,
        "meta_bstar": 0.00037092,
        "meta_mean_motion_dot": 8.66e-06,
        "meta_mean_motion_ddot": 0,
        "tle_line1": "1 34944U 93036ADX 25360.00061902  .00000866  00000+0  37092-3 0  9992",
        "tle_line2": "2 34944  73.7468 208.1129 0220112  53.4279 308.6895 14.14210004642707"
      },
      "geometry": {
        "type": "Point",
        "coordinates": [
          -143.97938298298186,
          27.019730360257796
        ]
      }
    },
    {
      "type": "Feature",
      "properties": {
        "norad_id": 34946,
        "name": "COSMOS 2251 DEB",
        "group": "cosmos-2251-debris",
        "lat": -46.87991187012533,
        "lon": -61.79259473708482,
        "alt_km": 718.4373490437356,
        "timestamp": "2025-12-26T08:37:54.975155+00:00",
        "meta_object_name": "COSMOS 2251 DEB",
        "meta_object_id": "1993-036ADZ",
        "meta_epoch": "2025-12-25T14:47:39.171840",
        "meta_mean_motion": 14.62063555,
        "meta_eccentricity": 0.0048508,
        "meta_inclination": 74.0243,
        "meta_ra_of_asc_node": 317.4443,
        "meta_arg_of_pericenter": 90.5194,
        "meta_mean_anomaly": 270.1532,
        "meta_ephemeris_type": 0,
        "meta_classification_type": "U",
        "meta_norad_cat_id": 34946,
        "meta_element_set_no": 999,
        "meta_rev_at_epoch": 88397,
        "meta_bstar": 0.00064563,
        "meta_mean_motion_dot": 3.267e-05,
        "meta_mean_motion_ddot": 0,
        "tle_line1": "1 34946U 93036ADZ 25359.61642560  .00003267  00000+0  64563-3 0  9995",
        "tle_line2": "2 34946  74.0243 317.4443 0048508  90.5194 270.1532 14.62063555883979"
      },
      "geometry": {
        "type": "Point",
        "coordinates": [
          -61.79259473708482,
          -46.87991187012533
        ]
      }
    },
    {
      "type": "Feature",
      "properties": {
        "norad_id": 34949,
        "name": "COSMOS 2251 DEB",
        "group": "cosmos-2251-debris",
        "lat": 69.40598668187013,
        "lon": 132.75175173512307,
        "alt_km": 688.7942773021141,
        "timestamp": "2025-12-26T08:37:54.975165+00:00",
        "meta_object_name": "COSMOS 2251 DEB",
        "meta_object_id": "1993-036AEC",
        "meta_epoch": "2025-12-25T22:30:24.026112",
        "meta_mean_motion": 14.74089192,
        "meta_eccentricity": 0.0079963,
        "meta_inclination": 74.0186,
        "meta_ra_of_asc_node": 83.8736,
        "meta_arg_of_pericenter": 226.4237,
        "meta_mean_anomaly": 133.028,
        "meta_ephemeris_type": 0,
        "meta_classification_type": "U",
        "meta_norad_cat_id": 34949,
        "meta_element_set_no": 999,
        "meta_rev_at_epoch": 88556,
        "meta_bstar": 0.00052427,
        "meta_mean_motion_dot": 3.601e-05,
        "meta_mean_motion_ddot": 0,
        "tle_line1": "1 34949U 93036AEC 25359.93777808  .00003601  00000+0  52427-3 0  9995",
        "tle_line2": "2 34949  74.0186  83.8736 0079963 226.4237 133.0280 14.74089192885566"
      },
      "geometry": {
        "type": "Point",
        "coordinates": [
          132.75175173512307,
          69.40598668187013
        ]
      }
    },
    {
      "type": "Feature",
      "properties": {
        "norad_id": 34953,
        "name": "COSMOS 2251 DEB",
        "group": "cosmos-2251-debris",
        "lat": 13.169301045819555,
        "lon": 177.38631922812917,
        "alt_km": 706.1861006697154,
        "timestamp": "2025-12-26T08:37:54.975175+00:00",
        "meta_object_name": "COSMOS 2251 DEB",
        "meta_object_id": "1993-036AEG",
        "meta_epoch": "2025-12-26T01:35:55.790016",
        "meta_mean_motion": 14.69079682,
        "meta_eccentricity": 0.0058879,
        "meta_inclination": 74.0933,
        "meta_ra_of_asc_node": 1.7774,
        "meta_arg_of_pericenter": 350.1038,
        "meta_mean_anomaly": 66.8567,
        "meta_ephemeris_type": 0,
        "meta_classification_type": "U",
        "meta_norad_cat_id": 34953,
        "meta_element_set_no": 999,
        "meta_rev_at_epoch": 88324,
        "meta_bstar": 0.00094981,
        "meta_mean_motion_dot": 5.7e-05,
        "meta_mean_motion_ddot": 0,
        "tle_line1": "1 34953U 93036AEG 25360.06661794  .00005700  00000+0  94981-3 0  9995",
        "tle_line2": "2 34953  74.0933   1.7774 0058879 350.1038  66.8567 14.69079682883240"
      },
      "geometry": {
        "type": "Point",
        "coordinates": [
          177.38631922812917,
          13.169301045819555
        ]
      }
    },
    {
      "type": "Feature",
      "properties": {
        "norad_id": 34955,
        "name": "COSMOS 2251 DEB",
        "group": "cosmos-2251-debris",
        "lat": 47.498614825524065,
        "lon": -123.00064358423518,
        "alt_km": 590.5922921972751,
        "timestamp": "2025-12-26T08:37:54.975185+00:00",
        "meta_object_name": "COSMOS 2251 DEB",
        "meta_object_id": "1993-036AEJ",
        "meta_epoch": "2025-12-24T22:48:41.659488",
        "meta_mean_motion": 15.00737642,
        "meta_eccentricity": 0.00777361,
        "meta_inclination": 74.035,
        "meta_ra_of_asc_node": 221.6616,
        "meta_arg_of_pericenter": 288.4914,
        "meta_mean_anomaly": 70.7836,
        "meta_ephemeris_type": 0,
        "meta_classification_type": "U",
        "meta_norad_cat_id": 34955,
        "meta_element_set_no": 999,
        "meta_rev_at_epoch": 90217,
        "meta_bstar": 0.00061621674,
        "meta_mean_motion_dot": 8.298e-05,
        "meta_mean_motion_ddot": 0,
        "tle_line1": "1 34955U 93036AEJ 25358.95048217  .00008298  00000+0  61622-3 0  9992",
        "tle_line2": "2 34955  74.0350 221.6616 0077736 288.4914  70.7836 15.00737642902172"
      },
      "geometry": {
        "type": "Point",
        "coordinates": [
          -123.00064358423518,
          47.498614825524065
        ]
      }
    },
    {
      "type": "Feature",
      "properties": {
        "norad_id": 34962,
        "name": "COSMOS 2251 DEB",
        "group": "cosmos-2251-debris",
        "lat": 63.59342558362239,
        "lon": -156.85382861417102,
        "alt_km": 741.9013325142232,
        "timestamp": "2025-12-26T08:37:54.975195+00:00",
        "meta_object_name": "COSMOS 2251 DEB",
        "meta_object_id": "1993-036AER",
        "meta_epoch": "2025-12-24T21:27:34.403616",
        "meta_mean_motion": 14.46552409,
        "meta_eccentricity": 0.0018915,
        "meta_inclination": 74.0287,
        "meta_ra_of_asc_node": 170.6598,
        "meta_arg_of_pericenter": 282.7442,
        "meta_mean_anomaly": 77.1602,
        "meta_ephemeris_type": 0,
        "meta_classification_type": "U",
        "meta_norad_cat_id": 34962,
        "meta_element_set_no": 999,
        "meta_rev_at_epoch": 87754,
        "meta_bstar": 0.00044037,
        "meta_mean_motion_dot": 1.563e-05,
        "meta_mean_motion_ddot": 0,
        "tle_line1": "1 34962U 93036AER 25358.89414819  .00001563  00000+0  44037-3 0  9997",
        "tle_line2": "2 34962  74.0287 170.6598 0018915 282.7442  77.1602 14.46552409877547"
      },
      "geometry": {
        "type": "Point",
        "coordinates": [
          -156.85382861417102,
          63.59342558362239
        ]
      }
    },
    {
      "type": "Feature",
      "properties": {
        "norad_id": 34963,
        "name": "COSMOS 2251 DEB",
        "group": "cosmos-2251-debris",
        "lat": -11.76981629910717,
        "lon": -159.2800393045229,
        "alt_km": 697.4802414190754,
        "timestamp": "2025-12-26T08:37:54.975205+00:00",
        "meta_object_name": "COSMOS 2251 DEB",
        "meta_object_id": "1993-036AES",
        "meta_epoch": "2025-12-24T11:04:35.037696",
        "meta_mean_motion": 14.51189706,
        "meta_eccentricity": 0.00420275,
        "meta_inclination": 74.171,
        "meta_ra_of_asc_node": 20.8715,
        "meta_arg_of_pericenter": 215.0245,
        "meta_mean_anomaly": 144.8152,
        "meta_ephemeris_type": 0,
        "meta_classification_type": "U",
        "meta_norad_cat_id": 34963,
        "meta_element_set_no": 999,
        "meta_rev_at_epoch": 86971,
        "meta_bstar": 0.00126389,
        "meta_mean_motion_dot": 5.053e-05,
        "meta_mean_motion_ddot": 0,
        "tle_line1": "1 34963U 93036AES 25358.46151664  .00005053  00000+0  12639-2 0  9997",
        "tle_line2": "2 34963  74.1710  20.8715 0042027 215.0245 144.8152 14.51189706869712"
      },
      "geometry": {
        "type": "Point",
        "coordinates": [
          -159.2800393045229,
          -11.76981629910717
        ]
      }
    }
  ]
}